IONOSFERA-M 3           
1 64876U 25155A   26193.16339948  .00000005  00000+0  21748-4 0  9993
2 64876  98.6038 154.4415 0002201 117.1072 243.0331 14.21490501 49955
IONOSFERA-M 4           
1 64877U 25155B   26193.19819816  .00000006  00000+0  22207-4 0  9996
2 64877  98.6037 154.3926 0001771 102.6105 257.5271 14.21492902 49958
MICROCARB               
1 64899U 25156A   26192.81403436  .00000276  00000+0  50799-4 0  9992
2 64899  98.0075 269.5636 0017351 181.4107 178.7055 14.72882876 51599
CO3D 3                  
1 64900U 25156B   26193.20027241  .00002371  00000+0  11256-3 0  9997
2 64900  97.4338 271.5336 0001833 100.2960 259.8482 15.20222081 53330
CO3D 4                  
1 64901U 25156C   26193.20044723  .00000743  00000+0  37440-4 0  9997
2 64901  97.4336 271.5339 0001414 159.6356 200.4935 15.20192019 53336
CO3D 2                  
1 64902U 25156D   26193.16709970  .00002640  00000+0  12502-3 0  9994
2 64902  97.4336 271.3996 0001296  89.2415 270.8968 15.20206546 53323
CO3D 1                  
1 64903U 25156E   26193.16724890  .00002660  00000+0  12592-3 0  9994
2 64903  97.4337 271.3998 0001311 101.4194 258.7189 15.20210105 53322
PRSC-S1                 
1 65055U 25164A   26193.19019545  .00002174  00000+0  15595-3 0  9995
2 65055  41.1293 146.9742 0006236 178.3476 181.7359 15.06620194 52206
SENTINEL-6B             
1 66514U 25264A   26192.83590267 -.00000071  00000+0 -41261-4 0  9998
2 66514  66.0413  83.9841 0007873 268.7579  91.2534 12.80930071 30329
CAS500-3                
1 66655U 25274F   26192.75414882  .00000675  00000+0  78680-4 0  9997
2 66655  97.7438 120.2465 0006461  47.2907 312.8853 14.88378865 33806
CSG-3                   
1 67304U 26001A   26192.97541169  .00000158  00000+0  26380-4 0  9997
2 67304  97.8893  16.2188 0001500  93.2995 266.8389 14.82150701 28130
PRSC-E03                
1 68835U 26092A   26192.77534390  .00001471  00000+0  10418-3 0  9996
2 68835  38.0020 304.6768 0004622 229.7942 130.2416 15.06799129 11668
CAS500-2                
1 69013U 26100AK  26192.69548464  .00003412  00000+0  15743-3 0  9996
2 69013  97.3877  90.0874 0008004 306.8039  53.2461 15.20876867 10531
