OBJECT_NAME,OBJECT_ID,EPOCH,MEAN_MOTION,ECCENTRICITY,INCLINATION,RA_OF_ASC_NODE,ARG_OF_PERICENTER,MEAN_ANOMALY,EPHEMERIS_TYPE,CLASSIFICATION_TYPE,NORAD_CAT_ID,ELEMENT_SET_NO,REV_AT_EPOCH,BSTAR,MEAN_MOTION_DOT,MEAN_MOTION_DDOT
IONOSFERA-M 3,2025-155A,2026-07-12T03:55:17.715072,14.21490501,.0002201,98.6038,154.4415,117.1072,243.0331,0,U,64876,999,4995,.21748E-4,.5E-7,0
IONOSFERA-M 4,2025-155B,2026-07-12T04:45:24.321024,14.21492902,.0001771,98.6037,154.3926,102.6105,257.5271,0,U,64877,999,4995,.22207E-4,.6E-7,0
MICROCARB,2025-156A,2026-07-11T19:32:12.568704,14.72882876,.00173514,98.0075,269.5636,181.4107,178.7055,0,U,64899,999,5159,.50798874E-4,.276E-5,0
CO3D 3,2025-156B,2026-07-12T04:48:23.536224,15.20222081,.0001833,97.4338,271.5336,100.2960,259.8482,0,U,64900,999,5333,.11256E-3,.2371E-4,0
CO3D 4,2025-156C,2026-07-12T04:48:38.640672,15.20192019,.0001414,97.4336,271.5339,159.6356,200.4935,0,U,64901,999,5333,.3744E-4,.743E-5,0
CO3D 2,2025-156D,2026-07-12T04:00:37.414080,15.20206546,.0001296,97.4336,271.3996,89.2415,270.8968,0,U,64902,999,5332,.12502E-3,.264E-4,0
CO3D 1,2025-156E,2026-07-12T04:00:50.304960,15.20210105,.0001311,97.4337,271.3998,101.4194,258.7189,0,U,64903,999,5332,.12592E-3,.266E-4,0
PRSC-S1,2025-164A,2026-07-12T04:33:52.886880,15.06620194,.0006236,41.1293,146.9742,178.3476,181.7359,0,U,65055,999,5220,.15595E-3,.2174E-4,0
SENTINEL-6B,2025-264A,2026-07-11T20:03:41.990688,12.80930071,.00078732,66.0413,83.9841,268.7579,91.2534,0,U,66514,999,3032,-.41261051E-4,-.71E-6,0
CAS500-3,2025-274F,2026-07-11T18:05:58.458048,14.88378865,.00064617,97.7438,120.2465,47.2907,312.8853,0,U,66655,999,3380,.78679936E-4,.675E-5,0
CSG-3,2026-001A,2026-07-11T23:24:35.570016,14.82150701,.00015,97.8893,16.2188,93.2995,266.8389,0,U,67304,999,2813,.2638E-4,.158E-5,0
PRSC-E03,2026-092A,2026-07-11T18:36:29.712960,15.06799129,.0004622,38.0020,304.6768,229.7942,130.2416,0,U,68835,999,1166,.10417749E-3,.1471E-4,0
CAS500-2,2026-100AK,2026-07-11T16:41:29.872896,15.20876867,.00080047,97.3877,90.0874,306.8039,53.2461,0,U,69013,999,1053,.15743373E-3,.3412E-4,0
